0 COSMOS 1249 COOLANT
1 27570U 81021S   13283.42853759  .00000071  00000-0  12761-3 0  2624
2 27570 064.9585 210.3304 0059880 310.1546 049.4287 13.90759867593784
0 COSMOS 1249 COOLANT
1 27570U 81021S   13287.38346458  .00000076  00000-0  13092-3 0  2630
2 27570 064.9586 199.9562 0060270 309.2721 050.2991 13.90761364594331
0 COSMOS 1249 COOLANT
1 27570U 81021S   13290.11595759  .00000079  00000-0  13355-3 0  2641
2 27570 064.9590 192.7894 0060491 308.5485 051.0193 13.90762470594713
0 COSMOS 1249 COOLANT
1 27570U 81021S   13292.34509404  .00000094  00000-0  14550-3 0  2656
2 27570 064.9597 186.9426 0059978 307.6556 051.9211 13.90763791595025
0 COSMOS 1249 COOLANT
1 27570U 81021S   13295.29330049  .00000098  00000-0  14886-3 0  2667
2 27570 064.9601 179.2085 0060283 306.5332 053.0181 13.90765065595438
